ONEWEB-0249             
1 48967U 21060A   24354.22990555 -.00000055  00000+0 -17625-3 0  9993
2 48967  87.9085 337.3521 0001767  89.5177 270.6157 13.16595062167904
ONEWEB-0250             
1 48968U 21060B   24354.18600958  .00000065  00000+0  11835-3 0  9990
2 48968  87.9085 336.8959 0001014 122.9903 237.1331 13.25694844168000
ONEWEB-0252             
1 48970U 21060D   24354.26157063  .00000060  00000+0  12366-3 0  9991
2 48970  87.9088 337.3392 0001944  76.2775 283.8572 13.16595837167953
ONEWEB-0253             
1 48971U 21060E   24354.25049045  .00000096  00000+0  21650-3 0  9996
2 48971  87.9080 337.3495 0001540  83.2003 276.9303 13.16592750167882
ONEWEB-0254             
1 48972U 21060F   24354.25998758  .00000101  00000+0  22973-3 0  9997
2 48972  87.9086 337.3286 0001215  88.9537 271.1733 13.16594791167881
ONEWEB-0255             
1 48973U 21060G   24354.22198738  .00000002  00000+0 -27068-4 0  9997
2 48973  87.9083 337.3701 0001410  89.1216 271.0076 13.16595264167958
ONEWEB-0256             
1 48974U 21060H   24354.24810650  .00000134  00000+0  31781-3 0  9995
2 48974  87.9085 337.3738 0001925  82.6381 277.4969 13.16591393167920
ONEWEB-0257             
1 48975U 21060J   24354.20457538  .00000019  00000+0  15815-4 0  9997
2 48975  87.9085 337.3483 0001726  80.6703 279.4623 13.16595276167870
